GPS BIIR-5  (PRN 22)    
1 26407U 00040A   26154.43634513  .00000037  00000+0  00000+0 0  9998
2 26407  54.8532 215.7087 0121209 302.4096 132.8549  2.00557649189678
GPS BIIR-8  (PRN 16)    
1 27663U 03005A   26153.11683564  .00000042  00000+0  00000+0 0  9997
2 27663  54.8845 215.5678 0147930  53.0404 285.3077  2.00561461171000
GPS BIIR-11 (PRN 19)    
1 28190U 04009A   26154.43882671 -.00000034  00000+0  00000+0 0  9996
2 28190  54.8416 276.2428 0115550 172.5074 193.8280  2.00555284162678
GPS BIIR-13 (PRN 02)    
1 28474U 04045A   26153.78951816 -.00000077  00000+0  00000+0 0  9993
2 28474  55.1451 325.4759 0169815 316.0475   6.4312  2.00555416158131
GPS BIIRM-1 (PRN 17)    
1 28874U 05038A   26153.37012406 -.00000034  00000+0  00000+0 0  9991
2 28874  54.8906 273.7755 0127789 296.0552  46.7021  2.00566825151531
GPS BIIRM-2 (PRN 31)    
1 29486U 06042A   26154.27857833  .00000062  00000+0  00000+0 0  9998
2 29486  54.7088 151.8912 0106302  54.0916 122.8728  2.00570746144119
GPS BIIRM-3 (PRN 12)    
1 29601U 06052A   26154.45783774  .00000038  00000+0  00000+0 0  9993
2 29601  54.9363 214.5506 0085387  90.7241 270.3416  2.00557491143135
GPS BIIRM-4 (PRN 15)    
1 32260U 07047A   26154.26406287 -.00000024  00000+0  00000+0 0  9999
2 32260  54.0854  80.6396 0166251  87.1149 274.7760  2.00556022136537
GPS BIIRM-5 (PRN 29)    
1 32384U 07062A   26154.56167462 -.00000031  00000+0  00000+0 0  9993
2 32384  55.0430 274.7005 0035472 164.7636 177.2762  2.00559364135238
GPS BIIRM-6 (PRN 07)    
1 32711U 08012A   26154.17660751  .00000060  00000+0  00000+0 0  9990
2 32711  54.4953 150.4844 0210972 247.6658 110.0848  2.00572135133476
GPS BIIRM-8 (PRN 05)    
1 35752U 09043A   26154.40739281 -.00000076  00000+0  00000+0 0  9992
2 35752  56.2018  27.9930 0053657  82.6377  94.8092  2.00555150123084
GPS BIIF-1  (PRN 25)    
1 36585U 10022A   26152.54736094  .00000050  00000+0  00000+0 0  9999
2 36585  54.2716 209.1923 0126364  66.1203 326.4658  2.00561746117284
GPS BIIF-3  (PRN 24)    
1 38833U 12053A   26154.35635178  .00000056  00000+0  00000+0 0  9991
2 38833  53.5833 144.1659 0179525  65.5629 296.2875  2.00567330 99166
GPS BIIF-4  (PRN 27)    
1 39166U 13023A   26153.22578369 -.00000030  00000+0  00000+0 0  9995
2 39166  54.5161 269.5831 0141642  50.9646 310.2970  2.00563682 95582
GPS BIIF-5  (PRN 30)    
1 39533U 14008A   26154.22442443  .00000058  00000+0  00000+0 0  9990
2 39533  53.6524 149.8892 0084229 231.0425 128.2031  2.00558979 89406
GPS BIIF-6  (PRN 06)    
1 39741U 14026A   26154.49984131 -.00000074  00000+0  00000+0 0  9994
2 39741  56.5051 332.0503 0038293 326.8077  32.9551  2.00562183 88268
GPS BIIF-7  (PRN 09)    
1 40105U 14045A   26153.59423916 -.00000017  00000+0  00000+0 0  9997
2 40105  55.3440  89.0463 0032722 118.4505 241.8573  2.00557560 85781
GPS BIIF-8  (PRN 03)    
1 40294U 14068A   26152.96680541 -.00000077  00000+0  00000+0 0  9996
2 40294  56.9774  31.5411 0066663  70.0478 290.7243  2.00575438 84909
GPS BIIF-9  (PRN 26)    
1 40534U 15013A   26153.10435400  .00000050  00000+0  00000+0 0  9993
2 40534  53.1691 204.8015 0109234  40.0646 320.8265  2.00552380 81529
GPS BIIF-10 (PRN 08)    
1 40730U 15033A   26153.76177310 -.00000027  00000+0  00000+0 0  9993
2 40730  53.9939 267.6813 0115044  30.1673 330.5059  2.00557138 79701
GPS BIIF-11 (PRN 10)    
1 41019U 15062A   26151.32556150 -.00000085  00000+0  00000+0 0  9993
2 41019  56.9483  31.4607 0111528 231.2232 127.8246  2.00567194 77497
GPS BIIF-12 (PRN 32)    
1 41328U 16007A   26152.91118392 -.00000022  00000+0  00000+0 0  9995
2 41328  55.5151  90.0651 0096340 247.3878 111.5659  2.00552626 75530
GPS BIII-1  (PRN 04)    
1 43873U 18109A   26153.80175608 -.00000009  00000+0  00000+0 0  9994
2 43873  55.6736  92.7544 0038217 198.2969 338.5716  2.00561218 54787
GPS BIII-2  (PRN 18)    
1 44506U 19056A   26153.44735856 -.00000081  00000+0  00000+0 0  9997
2 44506  55.6403 331.7284 0061230 197.3681 346.8768  2.00569922 49773
GPS BIII-3  (PRN 23)    
1 45854U 20041A   26154.52221477 -.00000074  00000+0  00000+0 0  9991
2 45854  56.6608  29.4739 0063382 204.6456 334.6947  2.00559276 43764
GPS BIII-4  (PRN 14)    
1 46826U 20078A   26154.41710397  .00000040  00000+0  00000+0 0  9995
2 46826  53.9816 211.3373 0072917 206.8383 232.4954  2.00565038 41234
GPS BIII-5  (PRN 11)    
1 48859U 21054A   26154.54734624 -.00000077  00000+0  00000+0 0  9992
2 48859  55.1814 333.0080 0024911 228.6034 130.8970  2.00570190 36471
GPS BIII-6  (PRN 28)    
1 55268U 23009A   26153.74589748  .00000057  00000+0  00000+0 0  9999
2 55268  55.1211 149.0865 0006152 316.0201 222.8810  2.00572626 24956
GPS BIII-7  (PRN 01)    
1 62339U 24242A   26154.12961315 -.00000080  00000+0  00000+0 0  9990
2 62339  54.8556 334.7514 0017384   4.3653 173.9988  2.00571613 10976
GPS BIII-8  (PRN 21)    
1 64202U 25116A   26150.39787344 -.00000093  00000+0  00000+0 0  9999
2 64202  55.2226  31.8461 0008541 336.7269 209.5516  2.00577472  7510
GPS BIII-9  (PRN 20)    
1 67588U 26017A   26152.24333673 -.00000030  00000+0  00000+0 0  9999
2 67588  55.0787  89.3950 0022624 257.1779 102.5406  2.00571608431292
GPS BIII-10 (PRN 13)    
1 68791U 26087A   26154.55962061  .00000045  00000+0  00000+0 0  9993
2 68791  54.9640 208.3268 0020961 107.1366 330.7802  2.00569347   562
